COMMENT,ORIGINATOR,NORAD_CAT_ID,OBJECT_NAME,OBJECT_TYPE,CLASSIFICATION_TYPE,INTLDES,EPOCH,EPOCH_MICROSECONDS,MEAN_MOTION,ECCENTRICITY,INCLINATION,RA_OF_ASC_NODE,ARG_OF_PERICENTER,MEAN_ANOMALY,EPHEMERIS_TYPE,ELEMENT_SET_NO,REV_AT_EPOCH,BSTAR,MEAN_MOTION_DOT,MEAN_MOTION_DDOT,FILE,TLE_LINE0,TLE_LINE1,TLE_LINE2,OBJECT_ID,OBJECT_NUMBER,SEMIMAJOR_AXIS,PERIOD,APOGEE,PERIGEE,DECAYED
"GENERATED VIA SPACETRACK.ORG API","18 SPCS","48899","SPACEBEE-110","PAYLOAD","U","21059W","2022-03-06 21:03:35","548128","15.14044107","0.0010877","97.5412","196.4648","97.6111","262.6356","0","999","3841","0.00050331","0.000091","0","3348245","0 SPACEBEE-110","1 48899U 21059W   22065.87749477  .00009100  00000-0  50331-3 0  9998","2 48899  97.5412 196.4648 0010877  97.6111 262.6356 15.14044107 38417","2021-059W","48899","6902.019","95.110","531.391","516.377","0"
"GENERATED VIA SPACETRACK.ORG API","18 SPCS","48899","SPACEBEE-110","PAYLOAD","U","21059W","2022-03-07 08:09:46","714464","15.14053267","0.0010854","97.5411","196.923","96.1598","264.087","0","999","3848","0.00050052","0.00009051","0","3349338","0 SPACEBEE-110","1 48899U 21059W   22066.34012401  .00009051  00000-0  50052-3 0  9996","2 48899  97.5411 196.9230 0010854  96.1598 264.0870 15.14053267 38487","2021-059W","48899","6901.991","95.109","531.348","516.365","0"
"GENERATED VIA SPACETRACK.ORG API","18 SPCS","48899","SPACEBEE-110","PAYLOAD","U","21059W","2022-03-07 20:51:07","817472","15.14061479","0.0010824","97.541","197.4467","94.5748","265.672","0","999","3856","0.00044402","0.00008022","0","3349821","0 SPACEBEE-110","1 48899U 21059W   22066.86884048  .00008022  00000-0  44402-3 0  9996","2 48899  97.5410 197.4467 0010824  94.5748 265.6720 15.14061479 38564","2021-059W","48899","6901.966","95.108","531.302","516.361","0"
"GENERATED VIA SPACETRACK.ORG API","18 SPCS","48899","SPACEBEE-110","PAYLOAD","U","21059W","2022-03-08 03:11:48","255360","15.14066576","0.0010797","97.5409","197.7086","93.7733","266.4733","0","999","3860","0.00047202","0.00008534","0","3350309","0 SPACEBEE-110","1 48899U 21059W   22067.13319740  .00008534  00000-0  47202-3 0  9998","2 48899  97.5409 197.7086 0010797  93.7733 266.4733 15.14066576 38607","2021-059W","48899","6901.951","95.108","531.268","516.364","0"
"GENERATED VIA SPACETRACK.ORG API","18 SPCS","48899","SPACEBEE-110","PAYLOAD","U","21059W","2022-03-08 07:57:18","542304","15.1406981","0.0010786","97.5409","197.9049","93.1712","267.0754","0","999","3863","0.00045864","0.00008291","0","3350976","0 SPACEBEE-110","1 48899U 21059W   22067.33146461  .00008291  00000-0  45864-3 0  9990","2 48899  97.5409 197.9049 0010786  93.1712 267.0754 15.14069810 38634","2021-059W","48899","6901.941","95.108","531.250","516.362","0"
"GENERATED VIA SPACETRACK.ORG API","18 SPCS","48899","SPACEBEE-110","PAYLOAD","U","21059W","2022-03-08 20:38:39","176160","15.14076611","0.001074","97.5408","198.4287","91.5571","268.6891","0","999","3871","0.00039997","0.00007222","0","3351330","0 SPACEBEE-110","1 48899U 21059W   22067.86017565  .00007222  00000-0  39997-3 0  9993","2 48899  97.5408 198.4287 0010740  91.5571 268.6891 15.14076611 38713","2021-059W","48899","6901.920","95.107","531.198","516.373","0"
"GENERATED VIA SPACETRACK.ORG API","18 SPCS","48899","SPACEBEE-110","PAYLOAD","U","21059W","2022-03-09 14:05:29","618304","15.1408887","0.0010674","97.5407","199.1487","89.309","270.9365","0","999","3882","0.00044141","0.00007981","0","3352338","0 SPACEBEE-110","1 48899U 21059W   22068.58714836  .00007981  00000-0  44141-3 0  9997","2 48899  97.5407 199.1487 0010674  89.3090 270.9365 15.14088870 38823","2021-059W","48899","6901.883","95.107","531.115","516.381","0"
"GENERATED VIA SPACETRACK.ORG API","18 SPCS","48899","SPACEBEE-110","PAYLOAD","U","21059W","2022-03-09 14:05:29","618304","15.1408887","0.0010674","97.5407","199.1487","89.309","270.9365","0","999","3882","0.00044141","0.00007981","0","3352425","0 SPACEBEE-110","1 48899U 21059W   22068.58714836  .00007981  00000-0  44141-3 0  9997","2 48899  97.5407 199.1487 0010674  89.3090 270.9365 15.14088870 38823","2021-059W","48899","6901.883","95.107","531.115","516.381","0"
"GENERATED VIA SPACETRACK.ORG API","18 SPCS","48899","SPACEBEE-110","PAYLOAD","U","21059W","2022-03-09 22:01:19","663680","15.14093262","0.001065","97.5407","199.476","88.2564","271.9888","0","999","3887","0.00040789","0.0000737","0","3352875","0 SPACEBEE-110","1 48899U 21059W   22068.91758870  .00007370  00000-0  40789-3 0  9996","2 48899  97.5407 199.4760 0010650  88.2564 271.9888 15.14093262 38875","2021-059W","48899","6901.870","95.106","531.085","516.384","0"
"GENERATED VIA SPACETRACK.ORG API","18 SPCS","48899","SPACEBEE-110","PAYLOAD","U","21059W","2022-03-10 13:52:59","450304","15.14105589","0.0010618","97.5407","200.1307","86.1023","274.1422","0","999","3897","0.00047972","0.00008684","0","3353482","0 SPACEBEE-110","1 48899U 21059W   22069.57846586  .00008684  00000-0  47972-3 0  9991","2 48899  97.5407 200.1307 0010618  86.1023 274.1422 15.14105589 38979","2021-059W","48899","6901.832","95.106","531.026","516.369","0"
"GENERATED VIA SPACETRACK.ORG API","18 SPCS","48899","SPACEBEE-110","PAYLOAD","U","21059W","2022-03-10 21:48:49","164768","15.14112805","0.0010624","97.5407","200.4581","85.0588","275.1856","0","999","3902","0.00052783","0.00009565","0","3354091","0 SPACEBEE-110","1 48899U 21059W   22069.90890237  .00009565  00000-0  52783-3 0  9995","2 48899  97.5407 200.4581 0010624  85.0588 275.1856 15.14112805 39025","2021-059W","48899","6901.810","95.105","531.008","516.343","0"
"GENERATED VIA SPACETRACK.ORG API","18 SPCS","48899","SPACEBEE-110","PAYLOAD","U","21059W","2022-03-11 02:34:18","916032","15.14117191","0.0010605","97.5406","200.6542","84.4702","275.7739","0","999","3905","0.00055998","0.00010153","0","3354484","0 SPACEBEE-110","1 48899U 21059W   22070.10716338  .00010153  00000-0  55998-3 0  9994","2 48899  97.5406 200.6542 0010605  84.4702 275.7739 15.14117191 39055","2021-059W","48899","6901.797","95.105","530.981","516.343","0"
"GENERATED VIA SPACETRACK.ORG API","18 SPCS","48899","SPACEBEE-110","PAYLOAD","U","21059W","2022-03-11 07:19:48","595584","15.14122778","0.0010616","97.5408","200.8509","83.6548","276.5892","0","999","3908","0.00059572","0.00010808","0","3354959","0 SPACEBEE-110","1 48899U 21059W   22070.30542356  .00010808  00000-0  59572-3 0  9992","2 48899  97.5408 200.8509 0010616  83.6548 276.5892 15.14122778 39082","2021-059W","48899","6901.780","95.105","530.972","516.318","0"
"GENERATED VIA SPACETRACK.ORG API","18 SPCS","48899","SPACEBEE-110","PAYLOAD","U","21059W","2022-03-11 21:36:17","409600","15.14136175","0.0010629","97.5409","201.4403","81.7895","278.4542","0","999","3917","0.00062225","0.00011297","0","3355378","0 SPACEBEE-110","1 48899U 21059W   22070.90020150  .00011297  00000-0  62225-3 0  9993","2 48899  97.5409 201.4403 0010629  81.7895 278.4542 15.14136175 39170","2021-059W","48899","6901.739","95.104","530.940","516.268","0"
"GENERATED VIA SPACETRACK.ORG API","18 SPCS","48899","SPACEBEE-110","PAYLOAD","U","21059W","2022-03-12 08:42:26","94528","15.14149859","0.0010657","97.541","201.8986","80.3965","279.847","0","999","3924","0.00070641","0.00012842","0","3356413","0 SPACEBEE-110","1 48899U 21059W   22071.36280202  .00012842  00000-0  70641-3 0  9998","2 48899  97.5410 201.8986 0010657  80.3965 279.8470 15.14149859 39242","2021-059W","48899","6901.698","95.103","530.918","516.208","0"
"GENERATED VIA SPACETRACK.ORG API","18 SPCS","48899","SPACEBEE-110","PAYLOAD","U","21059W","2022-03-12 08:42:26","94528","15.14149859","0.0010657","97.541","201.8986","80.3965","279.847","0","999","3924","0.00070641","0.00012842","0","3356520","0 SPACEBEE-110","1 48899U 21059W   22071.36280202  .00012842  00000-0  70641-3 0  9998","2 48899  97.5410 201.8986 0010657  80.3965 279.8470 15.14149859 39242","2021-059W","48899","6901.698","95.103","530.918","516.208","0"
"GENERATED VIA SPACETRACK.ORG API","18 SPCS","48899","SPACEBEE-110","PAYLOAD","U","21059W","2022-03-12 21:23:44","311776","15.14157468","0.0010685","97.541","202.4224","78.8545","281.3887","0","999","3932","0.0004985","0.0000904","0","3356931","0 SPACEBEE-110","1 48899U 21059W   22071.89148509  .00009040  00000-0  49850-3 0  9993","2 48899  97.5410 202.4224 0010685  78.8545 281.3887 15.14157468 39325","2021-059W","48899","6901.675","95.102","530.914","516.165","0"
"GENERATED VIA SPACETRACK.ORG API","18 SPCS","48899","SPACEBEE-110","PAYLOAD","U","21059W","2022-03-13 08:29:52","457568","15.14168041","0.0010732","97.5412","202.8807","77.5606","282.6826","0","999","3939","0.00051079","0.00009268","0","3357855","0 SPACEBEE-110","1 48899U 21059W   22072.35407937  .00009268  00000-0  51079-3 0  9996","2 48899  97.5412 202.8807 0010732  77.5606 282.6826 15.14168041 39398","2021-059W","48899","6901.642","95.102","530.914","516.101","0"
"GENERATED VIA SPACETRACK.ORG API","18 SPCS","48899","SPACEBEE-110","PAYLOAD","U","21059W","2022-03-13 19:36:00","360576","15.14180138","0.0010735","97.5412","203.3391","76.2296","284.0129","0","999","3946","0.00065867","0.00011979","0","3358373","0 SPACEBEE-110","1 48899U 21059W   22072.81667084  .00011979  00000-0  65867-3 0  9990","2 48899  97.5412 203.3391 0010735  76.2296 284.0129 15.14180138 39467","2021-059W","48899","6901.606","95.101","530.880","516.062","0"
"GENERATED VIA SPACETRACK.ORG API","18 SPCS","48899","SPACEBEE-110","PAYLOAD","U","21059W","2022-03-13 21:11:10","32000","15.14181766","0.0010738","97.5412","203.4046","76.0258","284.2167","0","999","3947","0.00066257","0.00012051","0","3358388","0 SPACEBEE-110","1 48899U 21059W   22072.88275500  .00012051  00000-0  66257-3 0  9991","2 48899  97.5412 203.4046 0010738  76.0258 284.2167 15.14181766 39477","2021-059W","48899","6901.601","95.101","530.877","516.055","0"
